{
  "type": "FeatureCollection",
  "license": "ODbL 1.0",
  "licenseUrl": "https://opendatacommons.org/licenses/odbl/1-0/",
  "attribution": "OpenStreetMap contributors",
  "features": [
    {
      "type": "Feature",
      "id": "nmwa-main-building",
      "properties": {
        "osmWayId": 145344184,
        "sourceTimestamp": "2026-09-14T03:56:41Z",
        "point": [
          139.77583,
          35.71556
        ],
        "sourceUrl": "https://www.openstreetmap.org/way/145344184"
      },
      "geometry": {
        "type": "Polygon",
        "coordinates": [
          [
            [
              139.7759661,
              35.7151162
            ],
            [
              139.7755734,
              35.7152944
            ],
            [
              139.7756472,
              35.7154016
            ],
            [
              139.7757101,
              35.7154931
            ],
            [
              139.7757921,
              35.7156123
            ],
            [
              139.7761849,
              35.7154342
            ],
            [
              139.7759661,
              35.7151162
            ]
          ]
        ]
      }
    },
    {
      "type": "Feature",
      "id": "kyu-iwasaki-tei",
      "properties": {
        "osmWayId": 502703799,
        "sourceTimestamp": "2026-09-14T03:56:41Z",
        "point": [
          139.7671857,
          35.7097579
        ],
        "sourceUrl": "https://www.openstreetmap.org/way/502703799"
      },
      "geometry": {
        "type": "Polygon",
        "coordinates": [
          [
            [
              139.7670817,
              35.7096808
            ],
            [
              139.7669828,
              35.7096801
            ],
            [
              139.7669505,
              35.7096799
            ],
            [
              139.7669493,
              35.7097928
            ],
            [
              139.7669773,
              35.7097929
            ],
            [
              139.7669771,
              35.7098152
            ],
            [
              139.7670203,
              35.7098155
            ],
            [
              139.7670203,
              35.7098123
            ],
            [
              139.7670949,
              35.7098128
            ],
            [
              139.7670945,
              35.7098485
            ],
            [
              139.7671599,
              35.709849
            ],
            [
              139.7671602,
              35.7098243
            ],
            [
              139.7673,
              35.7098253
            ],
            [
              139.7672998,
              35.7098418
            ],
            [
              139.767369,
              35.7098423
            ],
            [
              139.7673692,
              35.7098236
            ],
            [
              139.7674,
              35.7098216
            ],
            [
              139.7674061,
              35.7097939
            ],
            [
              139.7674203,
              35.7097822
            ],
            [
              139.767423,
              35.7097335
            ],
            [
              139.7674046,
              35.7097184
            ],
            [
              139.7674051,
              35.7096788
            ],
            [
              139.7673707,
              35.7096785
            ],
            [
              139.767371,
              35.7096504
            ],
            [
              139.767253,
              35.7096496
            ],
            [
              139.7671437,
              35.7096488
            ],
            [
              139.7671434,
              35.7096812
            ],
            [
              139.7670817,
              35.7096808
            ]
          ]
        ]
      }
    },
    {
      "type": "Feature",
      "id": "yoyogi-national-gymnasium",
      "properties": {
        "osmWayId": 101925760,
        "sourceTimestamp": "2026-09-14T03:56:41Z",
        "point": [
          139.700139,
          35.66775
        ],
        "sourceUrl": "https://www.openstreetmap.org/way/101925760"
      },
      "geometry": {
        "type": "Polygon",
        "coordinates": [
          [
            [
              139.7013755,
              35.6677735
            ],
            [
              139.7009034,
              35.66739
            ],
            [
              139.7008019,
              35.6673226
            ],
            [
              139.7006666,
              35.6672392
            ],
            [
              139.7005115,
              35.667175
            ],
            [
              139.7003563,
              35.6671285
            ],
            [
              139.7002597,
              35.6671146
            ],
            [
              139.7001549,
              35.6671116
            ],
            [
              139.7000581,
              35.6671221
            ],
            [
              139.6999593,
              35.6671372
            ],
            [
              139.6998858,
              35.6671527
            ],
            [
              139.6998124,
              35.6671809
            ],
            [
              139.6997336,
              35.6672166
            ],
            [
              139.6996589,
              35.6672679
            ],
            [
              139.6996002,
              35.6673212
            ],
            [
              139.6995301,
              35.6673975
            ],
            [
              139.6995024,
              35.6674421
            ],
            [
              139.6994648,
              35.6675222
            ],
            [
              139.6994385,
              35.6676229
            ],
            [
              139.6988826,
              35.6674922
            ],
            [
              139.6989722,
              35.6675643
            ],
            [
              139.6992619,
              35.6677909
            ],
            [
              139.6995682,
              35.6680002
            ],
            [
              139.6997105,
              35.6680683
            ],
            [
              139.6998413,
              35.6681221
            ],
            [
              139.6999636,
              35.6681509
            ],
            [
              139.7000797,
              35.6681667
            ],
            [
              139.7002037,
              35.6681711
            ],
            [
              139.7003133,
              35.6681657
            ],
            [
              139.7004166,
              35.6681452
            ],
            [
              139.7005065,
              35.6681125
            ],
            [
              139.7006073,
              35.6680665
            ],
            [
              139.7006888,
              35.6680088
            ],
            [
              139.7007563,
              35.6679467
            ],
            [
              139.700807,
              35.6678791
            ],
            [
              139.7008533,
              35.6677805
            ],
            [
              139.7008832,
              35.6676885
            ],
            [
              139.7013755,
              35.6677735
            ]
          ]
        ]
      }
    }
  ]
}
